{
  "norad_id": 57635,
  "name": "STARLINK-30329",
  "history": [
    {
      "epoch": "2026-03-28T03:06:19.063584Z",
      "apogee_km": 484.3887687962688,
      "perigee_km": 481.69849986954614,
      "latitude_deg": -1.7592199885423433e-05,
      "longitude_deg": 116.52508406253737,
      "height_km": 482.7527075561926,
      "semi_major_axis_km": 6861.180634332907,
      "eccentricity": 0.00019605,
      "inclination_deg": 43.0025,
      "raan_deg": 348.6588,
      "arg_perigee_deg": 272.913,
      "mean_anomaly_deg": 87.1497,
      "mean_motion_rev_day": 15.27581824
    }
  ]
}